STARLINK-30369          
1 57781U 23134L   25343.03570370  .00000589  00000+0  58680-4 0  9995
2 57781  43.0038 330.1622 0001002 267.1346  92.9381 15.02530668125834
STARLINK-30376          
1 57782U 23134M   25343.01572225 -.00004564  00000+0 -32308-3 0  9992
2 57782  43.0048 330.0241 0001322 259.3396 100.7297 15.02530205125836
STARLINK-30389          
1 57783U 23134N   25343.02904583 -.00000042  00000+0  11940-4 0  9996
2 57783  43.0037 330.1195 0000790 279.3881  80.6872 15.02536694125836
STARLINK-30388          
1 57784U 23134P   25343.69049200  .00000468  00000+0  49672-4 0  9990
2 57784  43.0046 326.4867 0000993 262.8516  97.2214 15.02537995125938
STARLINK-30381          
1 57785U 23134Q   25343.66716666  .00000888  00000+0  80809-4 0  9998
2 57785  43.0059 326.2186 0001069 272.2734  87.7986 15.02540520125935
STARLINK-30382          
1 57786U 23134R   25343.68716661 -.00001110  00000+0 -67124-4 0  9992
2 57786  43.0043 326.4611 0001211 268.2335  91.8368 15.02525849125932
STARLINK-30378          
1 57787U 23134S   25343.39793901 -.00003326  00000+0 -23117-3 0  9997
2 57787  43.0038 327.7295 0000806 291.5352  68.5405 15.02548365125892
STARLINK-30387          
1 57788U 23134T   25343.65414862  .00000302  00000+0  37449-4 0  9996
2 57788  43.0067 313.4060 0001051 272.8472  87.2250 15.02535442126085
STARLINK-30372          
1 57789U 23134U   25343.03331204  .00000026  00000+0  10469-4 0  9993
2 57789  42.9998 230.3567 0001173 257.6610 102.4110 15.27574930127006
STARLINK-30367          
1 57791U 23134W   25343.67383927  .00001240  00000+0  10687-3 0  9995
2 57791  43.0055 326.3589 0000911 270.9560  89.1178 15.02539477125931
STARLINK-30374          
1 57809U 23138B   25344.08858301 -.00000166  00000+0  27876-5 0  9995
2 57809  43.0046   3.2860 0001131 270.8927  89.1786 15.02532447125233
STARLINK-30394          
1 57810U 23138C   25344.08525425 -.00008291  00000+0 -59894-3 0  9996
2 57810  43.0033   3.2625 0001225 269.2164  90.8538 15.02562805125133
STARLINK-30379          
1 57811U 23138D   25344.08192013  .00001196  00000+0  10358-3 0  9997
2 57811  43.0041   3.2360 0001170 272.7004  87.3705 15.02537836125234
STARLINK-30395          
1 57812U 23138E   25344.14507412 -.00000140  00000+0  47392-5 0  9997
2 57812  43.0039   2.8510 0001116 268.6701  91.4014 15.02530651125240
STARLINK-30403          
1 57813U 23138F   25344.07526161  .00000858  00000+0  78584-4 0  9993
2 57813  43.0029   3.1858 0000860 269.2205  90.8538 15.02538329125132
STARLINK-30413          
1 57814U 23138G   25344.05525785  .00003549  00000+0  27749-3 0  9999
2 57814  43.0038   3.0440 0000414 291.3815  68.6983 15.02556466125237
STARLINK-30398          
1 57815U 23138H   25344.07193301  .00000368  00000+0  42342-4 0  9990
2 57815  43.0036   3.1610 0001230 268.8230  91.2471 15.02536555125133
STARLINK-30386          
1 57816U 23138J   25344.06859815  .00002248  00000+0  18138-3 0  9993
2 57816  43.0040   3.1357 0001326 267.3383  92.7307 15.02543332125052
STARLINK-30391          
1 57817U 23138K   25344.06527264 -.00000101  00000+0  75832-5 0  9997
2 57817  43.0027   3.1097 0001076 265.9979  94.0740 15.02533903125235
STARLINK-30401          
1 57818U 23138L   25344.06193992  .00000843  00000+0  77478-4 0  9994
2 57818  43.0020   3.0787 0001083 278.2007  81.8712 15.02536333125133
STARLINK-30390          
1 57819U 23138M   25344.05860558 -.00000671  00000+0 -34598-4 0  9990
2 57819  43.0050   3.0618 0001237 272.2566  87.8135 15.02550525125173
STARLINK-30409          
1 57820U 23138N   25344.04528860  .00001705  00000+0  14126-3 0  9999
2 57820  43.0057   2.9421 0001231 269.0433  91.0268 15.02540277125170
STARLINK-30415          
1 57821U 23138P   25344.11620744  .00000757  00000+0  71118-4 0  9993
2 57821  43.0046   2.6335 0001436 266.7228  93.3450 15.02540094125246
STARLINK-30407          
1 57823U 23138R   25344.15638560  .00003070  00000+0  12103-3 0  9993
2 57823  43.0023 274.4240 0001338 258.9919 101.0782 15.27586222126277
STARLINK-30408          
1 57824U 23138S   25344.11509514  .00002533  00000+0  20244-3 0  9994
2 57824  43.0034   2.6228 0001436 270.3699  89.6978 15.02544226125233
STARLINK-30377          
1 57825U 23138T   25344.09845047  .00000778  00000+0  72653-4 0  9997
2 57825  43.0054   2.5025 0001174 269.2337  90.8371 15.02536221125131
STARLINK-30422          
1 57826U 23138U   25344.10178021  .00001143  00000+0  99666-4 0  9991
2 57826  43.0026   2.5227 0001139 274.4364  85.6348 15.02537572125231
STARLINK-30402          
1 57827U 23138V   25344.10621838  .00000906  00000+0  82161-4 0  9999
2 57827  43.0050   2.5581 0001266 271.2123  88.8574 15.02538593125231
STARLINK-30411          
1 57828U 23138W   25344.10843375 -.00000872  00000+0 -49471-4 0  9993
2 57828  43.0052   2.5575 0001420 277.5761  82.4920 15.02549216125178
STARLINK-30418          
1 57829U 23138X   25344.09511796  .00000987  00000+0  88090-4 0  9996
2 57829  43.0050   2.4742 0001289 272.5851  87.4844 15.02540392125075
STARLINK-30285          
1 57840U 23141A   25343.98631520  .00001568  00000+0  65039-4 0  9992
2 57840  53.1631 340.8068 0000923  93.8976 266.2130 15.30198856126599
STARLINK-30410          
1 57841U 23141B   25343.60706205  .00004108  00000+0  15077-3 0  9994
2 57841  53.1615 342.5180 0001446  87.5221 272.5945 15.30192487126532
STARLINK-30435          
1 57842U 23141C   25344.00212404  .00005176  00000+0  18676-3 0  9997
2 57842  53.1606 340.7451 0001264  72.8516 287.2623 15.30202532126591
STARLINK-30423          
1 57843U 23141D   25344.13696759 -.00000818  00000+0 -15476-4 0  9997
2 57843  53.1609 340.1200 0001513  76.1358 283.9811 15.30200920126613
STARLINK-30292          
1 57844U 23141E   25344.14427616  .00004904  00000+0  17758-3 0  9995
2 57844  53.1599 339.6724 0001255  78.5682 281.5459 15.30199365126628
STARLINK-30416          
1 57847U 23141H   25343.99264707  .00001009  00000+0  46190-4 0  9996
2 57847  53.1622 340.8155 0001266  81.0811 279.0333 15.30191088126598
STARLINK-30426          
1 57848U 23141J   25344.14012688  .00004003  00000+0  14720-3 0  9994
2 57848  53.1602 340.1071 0001227  78.5500 281.5639 15.30200906126610
STARLINK-30430          
1 57849U 23141K   25344.05480446  .00000990  00000+0  45547-4 0  9999
2 57849  53.1625 340.5332 0001246  81.7762 278.3380 15.30187517126605
STARLINK-30425          
1 57850U 23141L   25344.14329755  .00003994  00000+0  14693-3 0  9990
2 57850  53.1600 340.1315 0001121  67.3742 292.7378 15.30196402126618
STARLINK-30405          
1 57851U 23141M   25343.99581134  .00000825  00000+0  39979-4 0  9999
2 57851  53.1624 340.8205 0001347  89.3975 270.7180 15.30192072126595
STARLINK-30431          
1 57852U 23141N   25344.14954899  .00001018  00000+0  46471-4 0  9990
2 57852  53.1614 339.7045 0001227  95.4234 264.6907 15.30203678126614
STARLINK-30404          
1 57853U 23141P   25344.14533162  .00000624  00000+0  33206-4 0  9991
2 57853  53.1610 339.6746 0001665  77.3152 282.8035 15.30199000126620
STARLINK-30412          
1 57854U 23141Q   25344.15588095  .00001500  00000+0  62737-4 0  9993
2 57854  53.1606 339.7422 0000983 104.8588 255.2521 15.30200729126624
STARLINK-30392          
1 57855U 23141R   25344.15271916  .00000479  00000+0  28312-4 0  9990
2 57855  53.1602 339.7211 0000997  93.6452 266.4663 15.30194758126622
STARLINK-30291          
1 57856U 23141S   25344.17593175 -.00001172  00000+0 -27450-4 0  9992
2 57856  53.1640 339.8631 0001237  91.5405 268.5738 15.30203420126628
STARLINK-30424          
1 57857U 23141T   25344.17687765  .00001213  00000+0  53101-4 0  9998
2 57857  53.1627 313.9036 0001348  91.4189 268.6966 15.30190153126988
STARLINK-30290          
1 57858U 23141U   25344.16221683 -.00000383  00000+0 -78884-6 0  9997
2 57858  53.1621 339.7772 0001845  92.5513 267.5698 15.30196038126620
STARLINK-30414          
1 57859U 23141V   25344.15904955  .00000402  00000+0  25695-4 0  9997
2 57859  53.1622 339.7588 0001138  86.0545 274.0586 15.30195481126625
STARLINK-30272          
1 57860U 23141W   25344.17910168  .00000040  00000+0  13485-4 0  9996
2 57860  53.1629 339.8825 0001272  94.8025 265.3121 15.30192243126629
STARLINK-30432          
1 57864U 23144A   25344.19716597  .00000771  00000+0  72135-4 0  9993
2 57864  43.0034  54.1869 0001165 279.6367  80.4344 15.02538347124101
STARLINK-30427          
1 57865U 23144B   25344.19383884  .00000870  00000+0  79443-4 0  9992
2 57865  43.0030  54.1543 0001153 268.3654  91.7056 15.02539150124106
STARLINK-30393          
1 57866U 23144C   25344.20371032  .00000268  00000+0  34911-4 0  9999
2 57866  43.0029  53.3735 0001099 264.1025  95.9692 15.02535132124113
STARLINK-30439          
1 57867U 23144D   25344.19052319  .00019611  00000+0  14650-2 0  9990
2 57867  42.9956  54.1301 0001571 120.2130 239.8867 15.02476367124154
STARLINK-30442          
1 57868U 23144E   25344.18717473  .00002128  00000+0  17256-3 0  9990
2 57868  43.0031  54.0679 0001515 278.4127  81.6544 15.02539486124100
STARLINK-30441          
1 57869U 23144F   25344.20049007 -.00000069  00000+0  99867-5 0  9998
2 57869  43.0046  54.1601 0001405 277.6134  82.4549 15.02537936124102
STARLINK-30460          
1 57870U 23144G   25344.18384774  .00001177  00000+0  10216-3 0  9999
2 57870  43.0046  54.0855 0001025 268.0981  91.9744 15.02537713124156
STARLINK-30444          
1 57871U 23144H   25343.64536616  .00001256  00000+0  10801-3 0  9992
2 57871  43.0024  56.9229 0001210 277.3173  82.7532 15.02541386123794
STARLINK-30446          
1 57872U 23144J   25344.20399488  .00003092  00000+0  24380-3 0  9997
2 57872  43.0026  40.5930 0001151 271.8468  88.2243 15.02543375124033
STARLINK-30445          
1 57873U 23144K   25344.18051949  .00001720  00000+0  14239-3 0  9990
2 57873  43.0023  54.0631 0001270 272.9826  87.0871 15.02540280124105
